{"fetched_at":"2026-03-29T16:36:15Z","count":15609,"tles":[{"name":"STARLINK-4193","line1":"1 52875U 22062AX  26087.82905756  .00003803  00000+0  25671-3 0  9991","line2":"2 52875  53.2177 288.2001 0001539  89.7368 270.3801 15.08869167208950","category":"Starlink"}]}